SENTINEL-6              
1 46984U 20086A   24037.59561283 -.00000061  00000+0 -11445-5 0  9990
2 46984  66.0415 124.5888 0007800 270.2406  89.7715 12.80930442150092
